STARLINK-1559           
1 46077U 20055BC  26068.23360559  .00042685  00000+0  14779-2 0  9995
2 46077  53.0254  76.0659 0004229  33.9710 326.1559 15.29461733309518
STARLINK-32510          
1 62040U 24216J   26068.52684532  .00025524  00000+0  93471-3 0  9998
2 62040  42.9971 264.7697 0000959 195.8026 164.2795 15.27549679 73763
